[{"OBJECT_NAME":"STARLINK-35851","OBJECT_ID":"2025-254J","EPOCH":"2026-03-09T21:21:22.380768","MEAN_MOTION":15.3019816,"ECCENTRICITY":9.41e-5,"INCLINATION":53.157,"RA_OF_ASC_NODE":231.715,"ARG_OF_PERICENTER":108.6676,"MEAN_ANOMALY":251.4427,"EPHEMERIS_TYPE":0,"CLASSIFICATION_TYPE":"U","NORAD_CAT_ID":66356,"ELEMENT_SET_NO":999,"REV_AT_EPOCH":1900,"BSTAR":0.0009115398,"MEAN_MOTION_DOT":0.00026734,"MEAN_MOTION_DDOT":0},{"OBJECT_NAME":"FENGYUN 1C DEB","OBJECT_ID":"1999-025AUA","EPOCH":"2026-03-09T22:20:03.086592","MEAN_MOTION":15.37519861,"ECCENTRICITY":0.00616014,"INCLINATION":98.7858,"RA_OF_ASC_NODE":60.8335,"ARG_OF_PERICENTER":230.1589,"MEAN_ANOMALY":129.4222,"EPHEMERIS_TYPE":0,"CLASSIFICATION_TYPE":"U","NORAD_CAT_ID":30764,"ELEMENT_SET_NO":999,"REV_AT_EPOCH":2558,"BSTAR":0.00082447851,"MEAN_MOTION_DOT":0.00032356,"MEAN_MOTION_DDOT":0}]
